{"type": "FeatureCollection", "features": [ {"type": "Feature", "properties": {"norad_id": 54234, "name": "NOAA 21 (JPSS-2)", "group": "weather", "lat": 21.794378233678113, "lon": -89.2424958866801, "alt_km": 825.1398807188361, "timestamp": "2025-12-03T20:47:57.859406+00:00", "meta": {"OBJECT_NAME": "NOAA 21 (JPSS-2)", "OBJECT_ID": "2022-150A", "EPOCH": "2025-12-03T10:32:45.017952", "MEAN_MOTION": 14.19519894, "ECCENTRICITY": 0.0002535, "INCLINATION": 98.7448, "RA_OF_ASC_NODE": 273.8643, "ARG_OF_PERICENTER": 55.2971, "MEAN_ANOMALY": 304.8444, "EPHEMERIS_TYPE": 0, "CLASSIFICATION_TYPE": "U", "NORAD_CAT_ID": 54234, "ELEMENT_SET_NO": 999, "REV_AT_EPOCH": 15877, "BSTAR": 9.3322e-05, "MEAN_MOTION_DOT": 1.53e-06, "MEAN_MOTION_DDOT": 0}, "tle": {"line1": "1 54234U 22150A   25337.43940993  .00000153  00000+0  93322-4 0  9990", "line2": "2 54234  98.7448 273.8643 0002535  55.2971 304.8444 14.19519894158773"}}, "geometry": {"type": "Point", "coordinates": [-89.2424958866801, 21.794378233678113]}}, {"type": "Feature", "properties": {"norad_id": 54743, "name": "METEOSAT-12 (MTG-I1)", "group": "weather", "lat": -0.04360493405815314, "lon": 24.643239567700622, "alt_km": 35790.34122731447, "timestamp": "2025-12-03T20:47:57.859418+00:00", "meta": {"OBJECT_NAME": "METEOSAT-12 (MTG-I1)", "OBJECT_ID": "2022-170C", "EPOCH": "2025-12-03T06:54:18.722016", "MEAN_MOTION": 1.00273639, "ECCENTRICITY": 0.0001496, "INCLINATION": 0.7174, "RA_OF_ASC_NODE": 29.9886, "ARG_OF_PERICENTER": 215.4423, "MEAN_ANOMALY": 290.2363, "EPHEMERIS_TYPE": 0, "CLASSIFICATION_TYPE": "U", "NORAD_CAT_ID": 54743, "ELEMENT_SET_NO": 999, "REV_AT_EPOCH": 1101, "BSTAR": 0, "MEAN_MOTION_DOT": 1.2e-07, "MEAN_MOTION_DDOT": 0}, "tle": {"line1": "1 54743U 22170C   25337.28771669  .00000012  00000+0  00000+0 0  9992", "line2": "2 54743   0.7174  29.9886 0001496 215.4423 290.2363  1.00273639 11016"}}, "geometry": {"type": "Point", "coordinates": [24.643239567700622, -0.04360493405815314]}}, {"type": "Feature", "properties": {"norad_id": 55973, "name": "TIANMU-1 03", "group": "weather", "lat": 42.106688109648104, "lon": 133.42502881057587, "alt_km": 438.99807733801936, "timestamp": "2025-12-03T20:47:57.859432+00:00", "meta": {"OBJECT_NAME": "TIANMU-1 03", "OBJECT_ID": "2023-039A", "EPOCH": "2025-12-03T12:49:14.373696", "MEAN_MOTION": 15.4050068, "ECCENTRICITY": 0.0004554, "INCLINATION": 97.5101, "RA_OF_ASC_NODE": 139.9314, "ARG_OF_PERICENTER": 87.669, "MEAN_ANOMALY": 272.5077, "EPHEMERIS_TYPE": 0, "CLASSIFICATION_TYPE": "U", "NORAD_CAT_ID": 55973, "ELEMENT_SET_NO": 999, "REV_AT_EPOCH": 15064, "BSTAR": 0.00050193, "MEAN_MOTION_DOT": 0.00020306, "MEAN_MOTION_DDOT": 0}, "tle": {"line1": "1 55973U 23039A   25337.53419414  .00020306  00000+0  50193-3 0  9998", "line2": "2 55973  97.5101 139.9314 0004554  87.6690 272.5077 15.40500680150643"}}, "geometry": {"type": "Point", "coordinates": [133.42502881057587, 42.106688109648104]}}, {"type": "Feature", "properties": {"norad_id": 55974, "name": "TIANMU-1 04", "group": "weather", "lat": 33.510490855656464, "lon": -35.525734605602366, "alt_km": 440.02744516491566, "timestamp": "2025-12-03T20:47:57.859443+00:00", "meta": {"OBJECT_NAME": "TIANMU-1 04", "OBJECT_ID": "2023-039B", "EPOCH": "2025-12-03T12:22:30.093312", "MEAN_MOTION": 15.40829878, "ECCENTRICITY": 0.0005227, "INCLINATION": 97.5032, "RA_OF_ASC_NODE": 139.1072, "ARG_OF_PERICENTER": 83.8153, "MEAN_ANOMALY": 276.3689, "EPHEMERIS_TYPE": 0, "CLASSIFICATION_TYPE": "U", "NORAD_CAT_ID": 55974, "ELEMENT_SET_NO": 999, "REV_AT_EPOCH": 15064, "BSTAR": 0.00050177, "MEAN_MOTION_DOT": 0.00020525, "MEAN_MOTION_DDOT": 0}, "tle": {"line1": "1 55974U 23039B   25337.51562608  .00020525  00000+0  50177-3 0  9996", "line2": "2 55974  97.5032 139.1072 0005227  83.8153 276.3689 15.40829878150644"}}, "geometry": {"type": "Point", "coordinates": [-35.525734605602366, 33.510490855656464]}}, {"type": "Feature", "properties": {"norad_id": 55975, "name": "TIANMU-1 05", "group": "weather", "lat": -9.967513897641648, "lon": -41.368670721475006, "alt_km": 448.8663934445276, "timestamp": "2025-12-03T20:47:57.859456+00:00", "meta": {"OBJECT_NAME": "TIANMU-1 05", "OBJECT_ID": "2023-039C", "EPOCH": "2025-12-03T12:10:58.665216", "MEAN_MOTION": 15.40457925, "ECCENTRICITY": 0.0004323, "INCLINATION": 97.5079, "RA_OF_ASC_NODE": 139.5909, "ARG_OF_PERICENTER": 104.3289, "MEAN_ANOMALY": 255.8437, "EPHEMERIS_TYPE": 0, "CLASSIFICATION_TYPE": "U", "NORAD_CAT_ID": 55975, "ELEMENT_SET_NO": 999, "REV_AT_EPOCH": 15062, "BSTAR": 0.00049259, "MEAN_MOTION_DOT": 0.00019897, "MEAN_MOTION_DDOT": 0}, "tle": {"line1": "1 55975U 23039C   25337.50762344  .00019897  00000+0  49259-3 0  9994", "line2": "2 55975  97.5079 139.5909 0004323 104.3289 255.8437 15.40457925150625"}}, "geometry": {"type": "Point", "coordinates": [-41.368670721475006, -9.967513897641648]}}, {"type": "Feature", "properties": {"norad_id": 55976, "name": "TIANMU-1 06", "group": "weather", "lat": 47.08209401973841, "lon": -31.427317499259612, "alt_km": 436.7183276179021, "timestamp": "2025-12-03T20:47:57.859466+00:00", "meta": {"OBJECT_NAME": "TIANMU-1 06", "OBJECT_ID": "2023-039D", "EPOCH": "2025-12-03T12:26:05.096256", "MEAN_MOTION": 15.40882734, "ECCENTRICITY": 0.0004664, "INCLINATION": 97.509, "RA_OF_ASC_NODE": 140.0592, "ARG_OF_PERICENTER": 99.9439, "MEAN_ANOMALY": 260.2333, "EPHEMERIS_TYPE": 0, "CLASSIFICATION_TYPE": "U", "NORAD_CAT_ID": 55976, "ELEMENT_SET_NO": 999, "REV_AT_EPOCH": 15064, "BSTAR": 0.00049587, "MEAN_MOTION_DOT": 0.00020315, "MEAN_MOTION_DDOT": 0}, "tle": {"line1": "1 55976U 23039D   25337.51811454  .00020315  00000+0  49587-3 0  9994", "line2": "2 55976  97.5090 140.0592 0004664  99.9439 260.2333 15.40882734150645"}}, "geometry": {"type": "Point", "coordinates": [-31.427317499259612, 47.08209401973841]}}, {"type": "Feature", "properties": {"norad_id": 56232, "name": "FENGYUN 3G", "group": "weather", "lat": 44.42304519909984, "lon": 37.81662434601824, "alt_km": 396.05949750515174, "timestamp": "2025-12-03T20:47:57.859490+00:00", "meta": {"OBJECT_NAME": "FENGYUN 3G", "OBJECT_ID": "2023-055A", "EPOCH": "2025-12-03T09:30:02.813760", "MEAN_MOTION": 15.52776175, "ECCENTRICITY": 0.0009241, "INCLINATION": 49.9946, "RA_OF_ASC_NODE": 275.6421, "ARG_OF_PERICENTER": 103.5042, "MEAN_ANOMALY": 256.6955, "EPHEMERIS_TYPE": 0, "CLASSIFICATION_TYPE": "U", "NORAD_CAT_ID": 56232, "ELEMENT_SET_NO": 999, "REV_AT_EPOCH": 14957, "BSTAR": 0.00061458, "MEAN_MOTION_DOT": 0.00038571, "MEAN_MOTION_DDOT": 0}, "tle": {"line1": "1 56232U 23055A   25337.39586590  .00038571  00000+0  61458-3 0  9998", "line2": "2 56232  49.9946 275.6421 0009241 103.5042 256.6955 15.52776175149579"}}, "geometry": {"type": "Point", "coordinates": [37.81662434601824, 44.42304519909984]}}, {"type": "Feature", "properties": {"norad_id": 57166, "name": "METEOR-M2 3", "group": "weather", "lat": 34.22439043346729, "lon": -142.50349528297195, "alt_km": 810.7446377985361, "timestamp": "2025-12-03T20:47:57.859506+00:00", "meta": {"OBJECT_NAME": "METEOR-M2 3", "OBJECT_ID": "2023-091A", "EPOCH": "2025-12-03T11:41:18.204864", "MEAN_MOTION": 14.24024259, "ECCENTRICITY": 0.0004399, "INCLINATION": 98.6393, "RA_OF_ASC_NODE": 31.1875, "ARG_OF_PERICENTER": 33.586, "MEAN_ANOMALY": 326.5597, "EPHEMERIS_TYPE": 0, "CLASSIFICATION_TYPE": "U", "NORAD_CAT_ID": 57166, "ELEMENT_SET_NO": 999, "REV_AT_EPOCH": 12666, "BSTAR": 4.1764e-05, "MEAN_MOTION_DOT": 5.2e-07, "MEAN_MOTION_DDOT": 0}, "tle": {"line1": "1 57166U 23091A   25337.48701626  .00000052  00000+0  41764-4 0  9996", "line2": "2 57166  98.6393  31.1875 0004399  33.5860 326.5597 14.24024259126661"}}, "geometry": {"type": "Point", "coordinates": [-142.50349528297195, 34.22439043346729]}}, {"type": "Feature", "properties": {"norad_id": 57399, "name": "TIANMU-1 07", "group": "weather", "lat": -75.60683188278327, "lon": 177.9930145900771, "alt_km": 492.9899109033822, "timestamp": "2025-12-03T20:47:57.859517+00:00", "meta": {"OBJECT_NAME": "TIANMU-1 07", "OBJECT_ID": "2023-101A", "EPOCH": "2025-12-03T11:49:00.195168", "MEAN_MOTION": 15.2785611, "ECCENTRICITY": 0.000559, "INCLINATION": 97.2895, "RA_OF_ASC_NODE": 27.5476, "ARG_OF_PERICENTER": 104.9573, "MEAN_ANOMALY": 255.2286, "EPHEMERIS_TYPE": 0, "CLASSIFICATION_TYPE": "U", "NORAD_CAT_ID": 57399, "ELEMENT_SET_NO": 999, "REV_AT_EPOCH": 13174, "BSTAR": 0.00040001, "MEAN_MOTION_DOT": 0.00010816, "MEAN_MOTION_DDOT": 0}, "tle": {"line1": "1 57399U 23101A   25337.49236337  .00010816  00000+0  40001-3 0  9990", "line2": "2 57399  97.2895  27.5476 0005590 104.9573 255.2286 15.27856110131746"}}, "geometry": {"type": "Point", "coordinates": [177.9930145900771, -75.60683188278327]}}, {"type": "Feature", "properties": {"norad_id": 57400, "name": "TIANMU-1 08", "group": "weather", "lat": 77.38683268930907, "lon": -7.174025696157512, "alt_km": 470.5001617303742, "timestamp": "2025-12-03T20:47:57.859529+00:00", "meta": {"OBJECT_NAME": "TIANMU-1 08", "OBJECT_ID": "2023-101B", "EPOCH": "2025-12-03T12:35:34.271808", "MEAN_MOTION": 15.27841634, "ECCENTRICITY": 0.000747, "INCLINATION": 97.2884, "RA_OF_ASC_NODE": 27.3789, "ARG_OF_PERICENTER": 109.6327, "MEAN_ANOMALY": 250.5719, "EPHEMERIS_TYPE": 0, "CLASSIFICATION_TYPE": "U", "NORAD_CAT_ID": 57400, "ELEMENT_SET_NO": 999, "REV_AT_EPOCH": 13174, "BSTAR": 0.00037303, "MEAN_MOTION_DOT": 0.0001008, "MEAN_MOTION_DDOT": 0}, "tle": {"line1": "1 57400U 23101B   25337.52470222  .00010080  00000+0  37303-3 0  9994", "line2": "2 57400  97.2884  27.3789 0007470 109.6327 250.5719 15.27841634131744"}}, "geometry": {"type": "Point", "coordinates": [-7.174025696157512, 77.38683268930907]}}]}